#aV2022  1 23  0  0  0.00000000     288 DD+AD WGS84 FIT  NGA
## 2194      0.00000000   300.00000000 59602 0.0000000000000
+   31     1  2  3  4  5  6  7  8  9 10 11 12 13 14 15 16 17
+         18 19 20 21 23 24 25 26 27 28 29 30 31 32  0  0  0
+          0  0  0  0  0  0  0  0  0  0  0  0  0  0  0  0  0
+          0  0  0  0  0  0  0  0  0  0  0  0  0  0  0  0  0
+          0  0  0  0  0  0  0  0  0  0  0  0  0  0  0  0  0
++         2  2  2  2  2  2  2  2  2  2  2  2  2  2  2  2  2
++         2  2  2  2  2  2  2  2  2  2  2  2  2  2  0  0  0
++         0  0  0  0  0  0  0  0  0  0  0  0  0  0  0  0  0
++         0  0  0  0  0  0  0  0  0  0  0  0  0  0  0  0  0
++         0  0  0  0  0  0  0  0  0  0  0  0  0  0  0  0  0
%c cc cc ccc ccc cccc cccc cccc cccc ccccc ccccc ccccc ccccc
%c cc cc ccc ccc cccc cccc cccc cccc ccccc ccccc ccccc ccccc
%f  0.0000000  0.000000000  0.00000000000  0.000000000000000
%f  0.0000000  0.000000000  0.00000000000  0.000000000000000
%i    0    0    0    0      0      0      0      0         0
%i    0    0    0    0      0      0      0      0         0
/*      NGA, ST. LOUIS,MO.                                  
/*   EPHEMERIS COMPUTED FROM 2 DAYS OF DATA                 
/*   EPOCHA v7 SMOOTHER                                     
/*   G2139 IERS2010 SATIGS SATAPC                           
*  2022  1 23  5 20  0.00000000
P  1  17944.133986  13646.985499 -14593.881987    450.221413                    
V  1 -17729.791024  -2509.320658 -24282.825465     -0.097071                    
P  2   4512.821824 -14933.346911  22171.114339   -649.300502                    
V  2  26345.016388   3326.088927  -3104.950820     -0.008959                    
P  3  13018.553689  21833.652599   7780.916200    -89.430828                    
V  3   1100.075548  10165.271627 -29865.688763     -0.155946                    
P  4   9056.734719  12438.274533  21646.226581   -193.612138                    
V  4 -19051.495169  19814.158183  -3492.719125      0.019148                    
P  5  -4321.207589 -25094.534418   7111.231399    -68.854414                    
V  5   6006.025667   7636.377452  30063.309447     -0.013204                    
P  6  20134.918699  -6777.116840  16055.586507    178.987358                    
V  6  19511.941615   5301.561485 -22261.523555      0.112253                    
P  7  26189.972559   5826.609606    640.401192    304.278642                    
V  7   -891.188817   2588.177764  31194.443752      0.033364                    
P  8   -440.403295  19621.762624 -17751.138257    -53.261548                    
V  8 -15895.703407  16188.259875  18645.699951     -0.014422                    
P  9  17463.391624   1183.478032  19913.237032   -357.000396                    
V  9 -15508.515342  20223.144299  12322.353789      0.013054                    
P 10 -14118.153838   4762.329956 -21849.142138   -300.659401                    
V 10  -9212.664954 -26483.901748   -106.655427     -0.098455                    
P 11   6730.749250 -13855.153900  21634.909732    -70.646805                    
V 11  26523.572359   7171.789666  -3671.616196     -0.379947                    
P 12 -10063.371967 -24014.510052   5330.908504   -159.935312                    
V 12    488.434051  -7437.958769 -30926.585257     -0.056684                    
P 13   9414.496856 -20724.971088 -13705.952544    249.746923                    
V 13  14315.700273  -9746.339716  25004.433823      0.060622                    
P 14  14819.104357  -4055.379339 -21669.808843    -74.434958                    
V 14   7793.066947  26403.523445    324.790530     -0.051398                    
P 15  -2844.575204 -19629.493005 -17920.714222    -89.455891                    
V 15  14227.331651 -17153.553780  17239.937675      0.028758                    
P 16  -1151.085347  24233.701268   9972.904743   -459.504886                    
V 16  -5682.725556 -12194.012396  28690.735885     -0.052847                    
P 17  21312.680982 -11723.653780 -10281.785141    565.176286                    
V 17  -8176.907702  11131.675793 -28399.631526      0.050813                    
P 18 -26052.876406  -5429.131175   -407.531267    255.415485                    
V 18     20.515564  -2489.182440  31890.870087     -0.075390                    
P 19  20771.896838 -16100.284776  -3354.792336    109.190499                    
V 19  -1313.770822   4402.782217 -31896.854797      0.049885                    
P 20   1992.211889 -21262.852417  15943.961666    517.044267                    
V 20  11251.149484  16923.835226  20902.979087     -0.001788                    
P 21   9683.816407  14794.600531 -19326.689298    156.674645                    
V 21 -25796.962746  -1957.654869 -13339.536579      0.007581                    
P 23 -16861.990612  -7567.803028 -19123.102257      8.439848                    
V 23  -7269.871504 -23117.874174  15478.565580     -0.037524                    
P 24 -14517.920961 -14610.809112 -17278.644580    276.926323                    
V 24  21377.272607    690.681806 -18453.559763     -0.005568                    
P 25 -16136.062269 -15054.765802  14702.593646    274.909062                    
V 25  -4303.163114 -18671.557081 -23120.752379      0.055001                    
P 26  -8745.168579  15955.309876  19168.840478    176.819210                    
V 26 -10741.500387 -22287.423309  13901.438973      0.033474                    
P 27 -10280.538123  22173.533910 -10083.618398     83.606325                    
V 27 -10116.909723   7941.467319  28694.347727      0.201196                    
P 28  11016.625316 -12872.663504 -19989.842532    416.301141                    
V 28   7077.645974  25526.999939 -12003.136889     -0.080439                    
P 29 -15052.834569  -5088.035301  21251.176497   -470.856654                    
V 29  18864.069385 -19338.382694   8659.775383     -0.048658                    
P 30  25145.392442  -1122.778635  -8781.604532   -508.605780                    
V 30  10289.457885   5439.068654  28303.039279     -0.025376                    
P 31 -18737.077599   8194.091197  17071.741023   -161.248719                    
V 31 -20876.953328  -6316.611659 -19275.868008     -0.017775                    
P 32 -20150.126881  15434.566632  -7365.951162    -55.025318                    
V 32   4045.661718  -9148.274312 -29922.113343     -0.062592                    
EOF
